start=new Date('2022-11-20T00:00:00.000Z').valueOf();
sats=[{"FILE":"3663561","TLE_LINE1":"1 47643U 21012Z   22323.56563288  .00001088  00000-0  91948-4 0  9997","LAUNCH_DATE":"2021-02-16","CENTER_NAME":"EARTH","MEAN_MOTION_DOT":"0.00001088","SITE":"AFETR","INCLINATION":"53.0534","REF_FRAME":"TEME","ECCENTRICITY":"0.00013680","OBJECT_TYPE":"PAYLOAD","TIME_SYSTEM":"UTC","PERIOD":"95.592","EPHEMERIS_TYPE":"0","SEMIMAJOR_AXIS":"6925.347","OBJECT_NAME":"STARLINK-2022","PERIAPSIS":"546.265","ARG_OF_PERICENTER":"117.7547","MEAN_MOTION":"15.06400364","RA_OF_ASC_NODE":"66.1238","CLASSIFICATION_TYPE":"U","MEAN_MOTION_DDOT":"0.0000000000000","COUNTRY_CODE":"US","MEAN_ANOMALY":"242.3581","GP_ID":"218235332","MEAN_ELEMENT_THEORY":"SGP4","RCS_SIZE":"LARGE","REV_AT_EPOCH":"9847","OBJECT_ID":"2021-012Z","DECAY_DATE":null,"ELEMENT_SET_NO":"999","TLE_LINE2":"2 47643  53.0534  66.1238 0001368 117.7547 242.3581 15.06400364 98474","APOAPSIS":"548.160","EPOCH":"2022-11-19T13:34:30.680832","BSTAR":"0.00009194800000","NORAD_CAT_ID":"47643"},{"MEAN_MOTION_DDOT":"0.0000000000000","CLASSIFICATION_TYPE":"U","RA_OF_ASC_NODE":"85.7690","ARG_OF_PERICENTER":"65.6525","MEAN_MOTION":"15.06405091","EPOCH":"2022-11-19T15:28:37.367616","APOAPSIS":"548.185","NORAD_CAT_ID":"47644","BSTAR":"0.00016794000000","TLE_LINE2":"2 47644  53.0549  85.7690 0001425  65.6525 294.4613 15.06405091 98219","ELEMENT_SET_NO":"999","REV_AT_EPOCH":"9821","DECAY_DATE":null,"OBJECT_ID":"2021-012AA","MEAN_ELEMENT_THEORY":"SGP4","GP_ID":"218236075","RCS_SIZE":"LARGE","MEAN_ANOMALY":"294.4613","COUNTRY_CODE":"US","SITE":"AFETR","MEAN_MOTION_DOT":"0.00002221","CENTER_NAME":"EARTH","LAUNCH_DATE":"2021-02-16","TLE_LINE1":"1 47644U 21012AA  22323.64487694  .00002221  00000-0  16794-3 0  9998","FILE":"3663561","PERIAPSIS":"546.211","OBJECT_NAME":"STARLINK-2026","EPHEMERIS_TYPE":"0","SEMIMAJOR_AXIS":"6925.333","PERIOD":"95.592","TIME_SYSTEM":"UTC","OBJECT_TYPE":"PAYLOAD","REF_FRAME":"TEME","ECCENTRICITY":"0.00014250","INCLINATION":"53.0549"},{"ELEMENT_SET_NO":"999","TLE_LINE2":"2 47645  53.0568  55.6245 0001034  86.9456 273.1651 15.06404142 98614","NORAD_CAT_ID":"47645","BSTAR":"0.00022153000000","EPOCH":"2022-11-19T17:34:43.457952","APOAPSIS":"547.917","COUNTRY_CODE":"US","MEAN_ANOMALY":"273.1651","RCS_SIZE":"LARGE","MEAN_ELEMENT_THEORY":"SGP4","GP_ID":"218235831","DECAY_DATE":null,"OBJECT_ID":"2021-012AB","REV_AT_EPOCH":"9861","MEAN_MOTION_DDOT":"0.0000000000000","MEAN_MOTION":"15.06404142","ARG_OF_PERICENTER":"86.9456","RA_OF_ASC_NODE":"55.6245","CLASSIFICATION_TYPE":"U","PERIOD":"95.592","SEMIMAJOR_AXIS":"6925.336","EPHEMERIS_TYPE":"0","OBJECT_NAME":"STARLINK-2027","PERIAPSIS":"546.485","INCLINATION":"53.0568","ECCENTRICITY":"0.00010340","REF_FRAME":"TEME","OBJECT_TYPE":"PAYLOAD","TIME_SYSTEM":"UTC","CENTER_NAME":"EARTH","MEAN_MOTION_DOT":"0.00003020","SITE":"AFETR","FILE":"3663561","TLE_LINE1":"1 47645U 21012AB  22323.73244743  .00003020  00000-0  22153-3 0  9999","LAUNCH_DATE":"2021-02-16"},{"INCLINATION":"53.0548","ECCENTRICITY":"0.00015500","REF_FRAME":"TEME","OBJECT_TYPE":"PAYLOAD","TIME_SYSTEM":"UTC","PERIOD":"95.592","SEMIMAJOR_AXIS":"6925.352","EPHEMERIS_TYPE":"0","OBJECT_NAME":"STARLINK-2028","PERIAPSIS":"546.144","FILE":"3663561","TLE_LINE1":"1 47646U 21012AC  22323.85178293  .00000610  00000-0  59878-4 0  9996","LAUNCH_DATE":"2021-02-16","MEAN_MOTION_DOT":"0.00000610","CENTER_NAME":"EARTH","SITE":"AFETR","COUNTRY_CODE":"US","MEAN_ANOMALY":"295.6720","RCS_SIZE":"LARGE","GP_ID":"218235082","MEAN_ELEMENT_THEORY":"SGP4","OBJECT_ID":"2021-012AC","DECAY_DATE":null,"REV_AT_EPOCH":"9912","ELEMENT_SET_NO":"999","TLE_LINE2":"2 47646  53.0548  20.0820 0001550  64.4429 295.6720 15.06398842 99124","NORAD_CAT_ID":"47646","BSTAR":"0.00005987800000","EPOCH":"2022-11-19T20:26:34.045152","APOAPSIS":"548.291","MEAN_MOTION":"15.06398842","ARG_OF_PERICENTER":"64.4429","RA_OF_ASC_NODE":"20.0820","CLASSIFICATION_TYPE":"U","MEAN_MOTION_DDOT":"0.0000000000000"},{"OBJECT_TYPE":"PAYLOAD","TIME_SYSTEM":"UTC","INCLINATION":"53.0558","ECCENTRICITY":"0.00017930","REF_FRAME":"TEME","OBJECT_NAME":"STARLINK-2030","PERIAPSIS":"545.982","PERIOD":"95.592","EPHEMERIS_TYPE":"0","SEMIMAJOR_AXIS":"6925.359","LAUNCH_DATE":"2021-02-16","FILE":"3663561","TLE_LINE1":"1 47647U 21012AD  22323.78863390  .00002914  00000-0  21444-3 0  9994","SITE":"AFETR","MEAN_MOTION_DOT":"0.00002914","CENTER_NAME":"EARTH","RCS_SIZE":"LARGE","MEAN_ELEMENT_THEORY":"SGP4","GP_ID":"218234833","DECAY_DATE":null,"OBJECT_ID":"2021-012AD","REV_AT_EPOCH":"9823","COUNTRY_CODE":"US","MEAN_ANOMALY":"262.3866","TLE_LINE2":"2 47647  53.0558  85.1278 0001793  97.7327 262.3866 15.06396566 98234","BSTAR":"0.00021444000000","NORAD_CAT_ID":"47647","APOAPSIS":"548.466","EPOCH":"2022-11-19T18:55:37.968960","ELEMENT_SET_NO":"999","RA_OF_ASC_NODE":"85.1278","CLASSIFICATION_TYPE":"U","MEAN_MOTION":"15.06396566","ARG_OF_PERICENTER":"97.7327","MEAN_MOTION_DDOT":"0.0000000000000"},{"MEAN_MOTION":"15.06388780","ARG_OF_PERICENTER":"66.9876","RA_OF_ASC_NODE":"65.1701","CLASSIFICATION_TYPE":"U","MEAN_MOTION_DDOT":"0.0000000000000","COUNTRY_CODE":"US","MEAN_ANOMALY":"293.1269","RCS_SIZE":"MEDIUM","GP_ID":"218235576","MEAN_ELEMENT_THEORY":"SGP4","OBJECT_ID":"2021-012AE","DECAY_DATE":null,"REV_AT_EPOCH":"9851","ELEMENT_SET_NO":"999","TLE_LINE2":"2 47648  53.0558  65.1701 0001486  66.9876 293.1269 15.06388780 98519","NORAD_CAT_ID":"47648","BSTAR":"-0.00011051000000","APOAPSIS":"548.277","EPOCH":"2022-11-19T18:42:22.638816","FILE":"3663561","TLE_LINE1":"1 47648U 21012AE  22323.77942869 -.00001927  00000-0 -11051-3 0  9991","LAUNCH_DATE":"2021-02-16","MEAN_MOTION_DOT":"-0.00001927","CENTER_NAME":"EARTH","SITE":"AFETR","INCLINATION":"53.0558","ECCENTRICITY":"0.00014860","REF_FRAME":"TEME","OBJECT_TYPE":"PAYLOAD","TIME_SYSTEM":"UTC","PERIOD":"95.593","SEMIMAJOR_AXIS":"6925.383","EPHEMERIS_TYPE":"0","OBJECT_NAME":"STARLINK-2031","PERIAPSIS":"546.219"},{"LAUNCH_DATE":"2021-02-16","FILE":"3663561","TLE_LINE1":"1 47649U 21012AF  22323.78310649  .00000552  00000-0  55954-4 0  9990","SITE":"AFETR","MEAN_MOTION_DOT":"0.00000552","CENTER_NAME":"EARTH","OBJECT_TYPE":"PAYLOAD","TIME_SYSTEM":"UTC","INCLINATION":"53.0563","ECCENTRICITY":"0.00014800","REF_FRAME":"TEME","OBJECT_NAME":"STARLINK-2032","PERIAPSIS":"546.179","PERIOD":"95.592","EPHEMERIS_TYPE":"0","SEMIMAJOR_AXIS":"6925.339","RA_OF_ASC_NODE":"65.1548","CLASSIFICATION_TYPE":"U","MEAN_MOTION":"15.06403112","ARG_OF_PERICENTER":"95.4776","MEAN_MOTION_DDOT":"0.0000000000000","RCS_SIZE":"LARGE","GP_ID":"218236331","MEAN_ELEMENT_THEORY":"SGP4","OBJECT_ID":"2021-012AF","DECAY_DATE":null,"REV_AT_EPOCH":"9851","COUNTRY_CODE":"US","MEAN_ANOMALY":"264.6382","TLE_LINE2":"2 47649  53.0563  65.1548 0001480  95.4776 264.6382 15.06403112 98511","NORAD_CAT_ID":"47649","BSTAR":"0.00005595400000","EPOCH":"2022-11-19T18:47:40.400736","APOAPSIS":"548.229","ELEMENT_SET_NO":"999"},{"TIME_SYSTEM":"UTC","OBJECT_TYPE":"PAYLOAD","REF_FRAME":"TEME","ECCENTRICITY":"0.00011800","INCLINATION":"53.0567","PERIAPSIS":"546.422","OBJECT_NAME":"STARLINK-2033","EPHEMERIS_TYPE":"0","SEMIMAJOR_AXIS":"6925.374","PERIOD":"95.593","LAUNCH_DATE":"2021-02-16","TLE_LINE1":"1 47650U 21012AG  22323.37028364  .00002886  00000-0  21258-3 0  9998","FILE":"3663448","SITE":"AFETR","CENTER_NAME":"EARTH","MEAN_MOTION_DOT":"0.00002886","REV_AT_EPOCH":"9792","DECAY_DATE":null,"OBJECT_ID":"2021-012AG","GP_ID":"218211533","MEAN_ELEMENT_THEORY":"SGP4","RCS_SIZE":"LARGE","MEAN_ANOMALY":"270.3789","COUNTRY_CODE":"US","EPOCH":"2022-11-19T08:53:12.506496","APOAPSIS":"548.056","NORAD_CAT_ID":"47650","BSTAR":"0.00021258000000","TLE_LINE2":"2 47650  53.0567  67.0071 0001180  89.7335 270.3789 15.06391641 97925","ELEMENT_SET_NO":"999","CLASSIFICATION_TYPE":"U","RA_OF_ASC_NODE":"67.0071","ARG_OF_PERICENTER":"89.7335","MEAN_MOTION":"15.06391641","MEAN_MOTION_DDOT":"0.0000000000000"},{"PERIAPSIS":"546.294","OBJECT_NAME":"STARLINK-2035","SEMIMAJOR_AXIS":"6925.372","EPHEMERIS_TYPE":"0","PERIOD":"95.593","TIME_SYSTEM":"UTC","OBJECT_TYPE":"PAYLOAD","REF_FRAME":"TEME","ECCENTRICITY":"0.00013620","INCLINATION":"53.0551","SITE":"AFETR","CENTER_NAME":"EARTH","MEAN_MOTION_DOT":"-0.00000412","LAUNCH_DATE":"2021-02-16","TLE_LINE1":"1 47651U 21012AH  22323.74072843 -.00000412  00000-0 -87376-5 0  9991","FILE":"3663561","EPOCH":"2022-11-19T17:46:38.936352","APOAPSIS":"548.180","NORAD_CAT_ID":"47651","BSTAR":"-0.00000873760000","TLE_LINE2":"2 47651  53.0551  85.3903 0001362  98.7590 261.3554 15.06392395 98222","ELEMENT_SET_NO":"999","REV_AT_EPOCH":"9822","OBJECT_ID":"2021-012AH","DECAY_DATE":null,"MEAN_ELEMENT_THEORY":"SGP4","GP_ID":"218235333","RCS_SIZE":"LARGE","MEAN_ANOMALY":"261.3554","COUNTRY_CODE":"US","MEAN_MOTION_DDOT":"0.0000000000000","CLASSIFICATION_TYPE":"U","RA_OF_ASC_NODE":"85.3903","ARG_OF_PERICENTER":"98.7590","MEAN_MOTION":"15.06392395"},{"RA_OF_ASC_NODE":"84.9351","CLASSIFICATION_TYPE":"U","MEAN_MOTION":"15.06402396","ARG_OF_PERICENTER":"76.4785","MEAN_MOTION_DDOT":"0.0000000000000","RCS_SIZE":"LARGE","GP_ID":"218236076","MEAN_ELEMENT_THEORY":"SGP4","DECAY_DATE":null,"OBJECT_ID":"2021-012AJ","REV_AT_EPOCH":"9823","COUNTRY_CODE":"US","MEAN_ANOMALY":"283.6353","TLE_LINE2":"2 47652  53.0554  84.9351 0001337  76.4785 283.6353 15.06402396 98237","NORAD_CAT_ID":"47652","BSTAR":"0.00009915700000","EPOCH":"2022-11-19T19:54:01.379232","APOAPSIS":"548.132","ELEMENT_SET_NO":"999","LAUNCH_DATE":"2021-02-16","FILE":"3663561","TLE_LINE1":"1 47652U 21012AJ  22323.82918263  .00001196  00000-0  99157-4 0  9993","SITE":"AFETR","CENTER_NAME":"EARTH","MEAN_MOTION_DOT":"0.00001196","OBJECT_TYPE":"PAYLOAD","TIME_SYSTEM":"UTC","INCLINATION":"53.0554","ECCENTRICITY":"0.00013370","REF_FRAME":"TEME","OBJECT_NAME":"STARLINK-2036","PERIAPSIS":"546.280","PERIOD":"95.592","SEMIMAJOR_AXIS":"6925.341","EPHEMERIS_TYPE":"0"}];
